ORBCOMM FM103           
1 40091U 14040F   25302.40632455  .00001063  00000+0  26340-3 0  9991
2 40091  47.0041 103.8351 0001954 192.1772 167.9067 14.58414262583695
ORBCOMM FM114           
1 41179U 15081A   25302.49269922  .00000977  00000+0  24499-3 0  9995
2 41179  47.0044  12.4047 0002943 249.1340 110.9231 14.58454488524078
ORBCOMM FM119           
1 41180U 15081B   25301.32209354  .00001080  00000+0  26723-3 0  9999
2 41180  47.0006 287.2847 0001982 291.9261  68.1413 14.58388729525157
ORBCOMM FM105           
1 41181U 15081C   25302.26761882  .00000438  00000+0  16795-3 0  9997
2 41181  47.0019 300.8386 0002184 226.8657 133.2041 14.45345973520148
ORBCOMM FM110           
1 41182U 15081D   25302.48407338  .00001446  00000+0  34463-3 0  9997
2 41182  47.0035  11.9691 0001419 109.8015 250.3024 14.58496244523949
ORBCOMM FM118           
1 41183U 15081E   25302.38031492  .00001239  00000+0  30089-3 0  9991
2 41183  47.0057  12.7348 0001916  35.4939 324.6074 14.58451265524038
ORBCOMM FM112           
1 41184U 15081F   25302.24766457  .00001253  00000+0  30341-3 0  9990
2 41184  46.9992 281.9373 0002162 258.8891 101.1752 14.58515589525239
ORBCOMM FM113           
1 41185U 15081G   25302.22475333  .00001055  00000+0  26127-3 0  9996
2 41185  47.0009 282.3928 0002045 270.8265  89.2387 14.58509140525215
