<?xml version="1.0" encoding="UTF-8"?>
<ndm xmlns:xsi="http://www.w3.org/2001/XMLSchema-instance" xsi:noNamespaceSchemaLocation="https://sanaregistry.org/r/ndmxml_unqualified/ndmxml-2.0.0-master-2.0.xsd">
<omm id="CCSDS_OMM_VERS" version="2.0">
<header><CREATION_DATE/><ORIGINATOR/></header><body><segment><metadata><OBJECT_NAME>ORBCOMM FM103</OBJECT_NAME><OBJECT_ID>2014-040F</OBJECT_ID><CENTER_NAME>EARTH</CENTER_NAME><REF_FRAME>TEME</REF_FRAME><TIME_SYSTEM>UTC</TIME_SYSTEM><MEAN_ELEMENT_THEORY>SGP4</MEAN_ELEMENT_THEORY></metadata><data><meanElements><EPOCH>2025-10-29T09:45:06.441120</EPOCH><MEAN_MOTION>14.58414262</MEAN_MOTION><ECCENTRICITY>.0001954</ECCENTRICITY><INCLINATION>47.0041</INCLINATION><RA_OF_ASC_NODE>103.8351</RA_OF_ASC_NODE><ARG_OF_PERICENTER>192.1772</ARG_OF_PERICENTER><MEAN_ANOMALY>167.9067</MEAN_ANOMALY></meanElements><tleParameters><EPHEMERIS_TYPE>0</EPHEMERIS_TYPE><CLASSIFICATION_TYPE>U</CLASSIFICATION_TYPE><NORAD_CAT_ID>40091</NORAD_CAT_ID><ELEMENT_SET_NO>999</ELEMENT_SET_NO><REV_AT_EPOCH>58369</REV_AT_EPOCH><BSTAR>.2634E-3</BSTAR><MEAN_MOTION_DOT>.1063E-4</MEAN_MOTION_DOT><MEAN_MOTION_DDOT>0</MEAN_MOTION_DDOT></tleParameters></data></segment></body></omm>
<omm id="CCSDS_OMM_VERS" version="2.0">
<header><CREATION_DATE/><ORIGINATOR/></header><body><segment><metadata><OBJECT_NAME>ORBCOMM FM114</OBJECT_NAME><OBJECT_ID>2015-081A</OBJECT_ID><CENTER_NAME>EARTH</CENTER_NAME><REF_FRAME>TEME</REF_FRAME><TIME_SYSTEM>UTC</TIME_SYSTEM><MEAN_ELEMENT_THEORY>SGP4</MEAN_ELEMENT_THEORY></metadata><data><meanElements><EPOCH>2025-10-29T11:49:29.212608</EPOCH><MEAN_MOTION>14.58454488</MEAN_MOTION><ECCENTRICITY>.0002943</ECCENTRICITY><INCLINATION>47.0044</INCLINATION><RA_OF_ASC_NODE>12.4047</RA_OF_ASC_NODE><ARG_OF_PERICENTER>249.1340</ARG_OF_PERICENTER><MEAN_ANOMALY>110.9231</MEAN_ANOMALY></meanElements><tleParameters><EPHEMERIS_TYPE>0</EPHEMERIS_TYPE><CLASSIFICATION_TYPE>U</CLASSIFICATION_TYPE><NORAD_CAT_ID>41179</NORAD_CAT_ID><ELEMENT_SET_NO>999</ELEMENT_SET_NO><REV_AT_EPOCH>52407</REV_AT_EPOCH><BSTAR>.24499E-3</BSTAR><MEAN_MOTION_DOT>.977E-5</MEAN_MOTION_DOT><MEAN_MOTION_DDOT>0</MEAN_MOTION_DDOT></tleParameters></data></segment></body></omm>
<omm id="CCSDS_OMM_VERS" version="2.0">
<header><CREATION_DATE/><ORIGINATOR/></header><body><segment><metadata><OBJECT_NAME>ORBCOMM FM119</OBJECT_NAME><OBJECT_ID>2015-081B</OBJECT_ID><CENTER_NAME>EARTH</CENTER_NAME><REF_FRAME>TEME</REF_FRAME><TIME_SYSTEM>UTC</TIME_SYSTEM><MEAN_ELEMENT_THEORY>SGP4</MEAN_ELEMENT_THEORY></metadata><data><meanElements><EPOCH>2025-10-28T07:43:48.881856</EPOCH><MEAN_MOTION>14.58388729</MEAN_MOTION><ECCENTRICITY>.00019822</ECCENTRICITY><INCLINATION>47.0006</INCLINATION><RA_OF_ASC_NODE>287.2847</RA_OF_ASC_NODE><ARG_OF_PERICENTER>291.9261</ARG_OF_PERICENTER><MEAN_ANOMALY>68.1413</MEAN_ANOMALY></meanElements><tleParameters><EPHEMERIS_TYPE>0</EPHEMERIS_TYPE><CLASSIFICATION_TYPE>U</CLASSIFICATION_TYPE><NORAD_CAT_ID>41180</NORAD_CAT_ID><ELEMENT_SET_NO>999</ELEMENT_SET_NO><REV_AT_EPOCH>52515</REV_AT_EPOCH><BSTAR>.26723024E-3</BSTAR><MEAN_MOTION_DOT>.108E-4</MEAN_MOTION_DOT><MEAN_MOTION_DDOT>0</MEAN_MOTION_DDOT></tleParameters></data></segment></body></omm>
<omm id="CCSDS_OMM_VERS" version="2.0">
<header><CREATION_DATE/><ORIGINATOR/></header><body><segment><metadata><OBJECT_NAME>ORBCOMM FM105</OBJECT_NAME><OBJECT_ID>2015-081C</OBJECT_ID><CENTER_NAME>EARTH</CENTER_NAME><REF_FRAME>TEME</REF_FRAME><TIME_SYSTEM>UTC</TIME_SYSTEM><MEAN_ELEMENT_THEORY>SGP4</MEAN_ELEMENT_THEORY></metadata><data><meanElements><EPOCH>2025-10-29T06:25:22.266048</EPOCH><MEAN_MOTION>14.45345973</MEAN_MOTION><ECCENTRICITY>.0002184</ECCENTRICITY><INCLINATION>47.0019</INCLINATION><RA_OF_ASC_NODE>300.8386</RA_OF_ASC_NODE><ARG_OF_PERICENTER>226.8657</ARG_OF_PERICENTER><MEAN_ANOMALY>133.2041</MEAN_ANOMALY></meanElements><tleParameters><EPHEMERIS_TYPE>0</EPHEMERIS_TYPE><CLASSIFICATION_TYPE>U</CLASSIFICATION_TYPE><NORAD_CAT_ID>41181</NORAD_CAT_ID><ELEMENT_SET_NO>999</ELEMENT_SET_NO><REV_AT_EPOCH>52014</REV_AT_EPOCH><BSTAR>.16795E-3</BSTAR><MEAN_MOTION_DOT>.438E-5</MEAN_MOTION_DOT><MEAN_MOTION_DDOT>0</MEAN_MOTION_DDOT></tleParameters></data></segment></body></omm>
<omm id="CCSDS_OMM_VERS" version="2.0">
<header><CREATION_DATE/><ORIGINATOR/></header><body><segment><metadata><OBJECT_NAME>ORBCOMM FM110</OBJECT_NAME><OBJECT_ID>2015-081D</OBJECT_ID><CENTER_NAME>EARTH</CENTER_NAME><REF_FRAME>TEME</REF_FRAME><TIME_SYSTEM>UTC</TIME_SYSTEM><MEAN_ELEMENT_THEORY>SGP4</MEAN_ELEMENT_THEORY></metadata><data><meanElements><EPOCH>2025-10-29T11:37:03.940032</EPOCH><MEAN_MOTION>14.58496244</MEAN_MOTION><ECCENTRICITY>.0001419</ECCENTRICITY><INCLINATION>47.0035</INCLINATION><RA_OF_ASC_NODE>11.9691</RA_OF_ASC_NODE><ARG_OF_PERICENTER>109.8015</ARG_OF_PERICENTER><MEAN_ANOMALY>250.3024</MEAN_ANOMALY></meanElements><tleParameters><EPHEMERIS_TYPE>0</EPHEMERIS_TYPE><CLASSIFICATION_TYPE>U</CLASSIFICATION_TYPE><NORAD_CAT_ID>41182</NORAD_CAT_ID><ELEMENT_SET_NO>999</ELEMENT_SET_NO><REV_AT_EPOCH>52394</REV_AT_EPOCH><BSTAR>.34463E-3</BSTAR><MEAN_MOTION_DOT>.1446E-4</MEAN_MOTION_DOT><MEAN_MOTION_DDOT>0</MEAN_MOTION_DDOT></tleParameters></data></segment></body></omm>
<omm id="CCSDS_OMM_VERS" version="2.0">
<header><CREATION_DATE/><ORIGINATOR/></header><body><segment><metadata><OBJECT_NAME>ORBCOMM FM118</OBJECT_NAME><OBJECT_ID>2015-081E</OBJECT_ID><CENTER_NAME>EARTH</CENTER_NAME><REF_FRAME>TEME</REF_FRAME><TIME_SYSTEM>UTC</TIME_SYSTEM><MEAN_ELEMENT_THEORY>SGP4</MEAN_ELEMENT_THEORY></metadata><data><meanElements><EPOCH>2025-10-29T09:07:39.209088</EPOCH><MEAN_MOTION>14.58451265</MEAN_MOTION><ECCENTRICITY>.0001916</ECCENTRICITY><INCLINATION>47.0057</INCLINATION><RA_OF_ASC_NODE>12.7348</RA_OF_ASC_NODE><ARG_OF_PERICENTER>35.4939</ARG_OF_PERICENTER><MEAN_ANOMALY>324.6074</MEAN_ANOMALY></meanElements><tleParameters><EPHEMERIS_TYPE>0</EPHEMERIS_TYPE><CLASSIFICATION_TYPE>U</CLASSIFICATION_TYPE><NORAD_CAT_ID>41183</NORAD_CAT_ID><ELEMENT_SET_NO>999</ELEMENT_SET_NO><REV_AT_EPOCH>52403</REV_AT_EPOCH><BSTAR>.30089E-3</BSTAR><MEAN_MOTION_DOT>.1239E-4</MEAN_MOTION_DOT><MEAN_MOTION_DDOT>0</MEAN_MOTION_DDOT></tleParameters></data></segment></body></omm>
<omm id="CCSDS_OMM_VERS" version="2.0">
<header><CREATION_DATE/><ORIGINATOR/></header><body><segment><metadata><OBJECT_NAME>ORBCOMM FM112</OBJECT_NAME><OBJECT_ID>2015-081F</OBJECT_ID><CENTER_NAME>EARTH</CENTER_NAME><REF_FRAME>TEME</REF_FRAME><TIME_SYSTEM>UTC</TIME_SYSTEM><MEAN_ELEMENT_THEORY>SGP4</MEAN_ELEMENT_THEORY></metadata><data><meanElements><EPOCH>2025-10-29T05:56:38.218848</EPOCH><MEAN_MOTION>14.58515589</MEAN_MOTION><ECCENTRICITY>.0002162</ECCENTRICITY><INCLINATION>46.9992</INCLINATION><RA_OF_ASC_NODE>281.9373</RA_OF_ASC_NODE><ARG_OF_PERICENTER>258.8891</ARG_OF_PERICENTER><MEAN_ANOMALY>101.1752</MEAN_ANOMALY></meanElements><tleParameters><EPHEMERIS_TYPE>0</EPHEMERIS_TYPE><CLASSIFICATION_TYPE>U</CLASSIFICATION_TYPE><NORAD_CAT_ID>41184</NORAD_CAT_ID><ELEMENT_SET_NO>999</ELEMENT_SET_NO><REV_AT_EPOCH>52523</REV_AT_EPOCH><BSTAR>.30341E-3</BSTAR><MEAN_MOTION_DOT>.1253E-4</MEAN_MOTION_DOT><MEAN_MOTION_DDOT>0</MEAN_MOTION_DDOT></tleParameters></data></segment></body></omm>
<omm id="CCSDS_OMM_VERS" version="2.0">
<header><CREATION_DATE/><ORIGINATOR/></header><body><segment><metadata><OBJECT_NAME>ORBCOMM FM113</OBJECT_NAME><OBJECT_ID>2015-081G</OBJECT_ID><CENTER_NAME>EARTH</CENTER_NAME><REF_FRAME>TEME</REF_FRAME><TIME_SYSTEM>UTC</TIME_SYSTEM><MEAN_ELEMENT_THEORY>SGP4</MEAN_ELEMENT_THEORY></metadata><data><meanElements><EPOCH>2025-10-29T05:23:38.687712</EPOCH><MEAN_MOTION>14.58509140</MEAN_MOTION><ECCENTRICITY>.0002045</ECCENTRICITY><INCLINATION>47.0009</INCLINATION><RA_OF_ASC_NODE>282.3928</RA_OF_ASC_NODE><ARG_OF_PERICENTER>270.8265</ARG_OF_PERICENTER><MEAN_ANOMALY>89.2387</MEAN_ANOMALY></meanElements><tleParameters><EPHEMERIS_TYPE>0</EPHEMERIS_TYPE><CLASSIFICATION_TYPE>U</CLASSIFICATION_TYPE><NORAD_CAT_ID>41185</NORAD_CAT_ID><ELEMENT_SET_NO>999</ELEMENT_SET_NO><REV_AT_EPOCH>52521</REV_AT_EPOCH><BSTAR>.26127E-3</BSTAR><MEAN_MOTION_DOT>.1055E-4</MEAN_MOTION_DOT><MEAN_MOTION_DDOT>0</MEAN_MOTION_DDOT></tleParameters></data></segment></body></omm>

</ndm>
